[{"OBJECT_NAME":"STARLINK-31474","OBJECT_ID":"2024-056J","EPOCH":"2026-03-09T10:19:57.436896","MEAN_MOTION":15.27574581,"ECCENTRICITY":0.00017282,"INCLINATION":43.0036,"RA_OF_ASC_NODE":225.3421,"ARG_OF_PERICENTER":280.3945,"MEAN_ANOMALY":79.6712,"EPHEMERIS_TYPE":0,"CLASSIFICATION_TYPE":"U","NORAD_CAT_ID":59304,"ELEMENT_SET_NO":999,"REV_AT_EPOCH":11119,"BSTAR":9.171097e-5,"MEAN_MOTION_DOT":2.262e-5,"MEAN_MOTION_DDOT":0},{"OBJECT_NAME":"FENGYUN 1C DEB","OBJECT_ID":"1999-025CCU","EPOCH":"2026-03-09T04:16:51.250080","MEAN_MOTION":14.7380712,"ECCENTRICITY":0.02770831,"INCLINATION":98.1363,"RA_OF_ASC_NODE":145.1449,"ARG_OF_PERICENTER":173.2574,"MEAN_ANOMALY":217.8544,"EPHEMERIS_TYPE":0,"CLASSIFICATION_TYPE":"U","NORAD_CAT_ID":31686,"ELEMENT_SET_NO":999,"REV_AT_EPOCH":99091,"BSTAR":0.001175879,"MEAN_MOTION_DOT":0.00014291,"MEAN_MOTION_DDOT":0}]
